{"spkid": "50447957", "covariance": {"labels": ["e", "q", "tp", "node", "peri", "i"], "data": [["2.100586166285169E-15", "-4.044598041181132E-15", "5.133832857009734E-13", "-1.415890131431749E-15", "7.533983510302498E-13", "-2.234929515205684E-14"], ["-4.044598041181132E-15", "7.793207633881903E-15", "-9.79369428640024E-13", "5.846912214885725E-15", "-1.454726621229119E-12", "4.529747780534547E-14"], ["5.133832857009734E-13", "-9.79369428640024E-13", "1.508152983250298E-10", "-2.575034549448868E-12", "1.944838453510275E-10", "-1.630040737806573E-12"], ["-1.415890131431749E-15", "5.846912214885725E-15", "-2.575034549448868E-12", "2.54682494103592E-10", "-2.601319224941738E-10", "1.000253827918834E-10"], ["7.533983510302498E-13", "-1.454726621229119E-12", "1.944838453510275E-10", "-2.601319224941738E-10", "5.453907388291723E-10", "-1.073937041772234E-10"], ["-2.234929515205684E-14", "4.529747780534547E-14", "-1.630040737806573E-12", "1.000253827918834E-10", "-1.073937041772234E-10", "7.867044859489405E-11"]], "elements": [{"sigma": 4.58321521018288e-08, "name": "e", "title": "eccentricity", "value": ".5610139551974206", "units": null, "label": "e"}, {"label": "q", "value": ".8668302037386277", "title": "perihelion distance", "units": "au", "sigma": 8.82791460871813e-08, "name": "q"}, {"label": "tp", "sigma": 1.22806880232758e-05, "name": "tp", "units": "TDB", "title": "time of perihelion passage", "value": "2455954.046369327007"}, {"units": "deg", "value": "344.8259319954432", "title": "longitude of the ascending node", "sigma": 1.5958774830907e-05, "name": "om", "label": "node"}, {"title": "argument of perihelion", "value": "237.3784494358476", "units": "deg", "sigma": 2.33536022666563e-05, "name": "w", "label": "peri"}, {"sigma": 8.86963632822079e-06, "name": "i", "title": "inclination", "value": "4.083832267179725", "units": "deg", "label": "i"}], "epoch": "2456367.5"}, "elements": [{"label": "e", "value": ".5589367669280455", "title": "eccentricity", "units": null, "sigma": "4.4894E-8", "name": "e"}, {"label": "a", "value": "1.978247749616896", "title": "semi-major axis", "units": "au", "sigma": "7.0443E-9", "name": "a"}, {"label": "q", "name": "q", "sigma": "8.6177E-8", "units": "au", "value": ".8725323482633465", "title": "perihelion distance"}, {"units": "deg", "value": "4.069774491385862", "title": "inclination; angle with respect to x-y ecliptic plane", "name": "i", "sigma": "8.8431E-6", "label": "i"}, {"label": "node", "title": "longitude of the ascending node", "value": "344.3530676358941", "units": "deg", "name": "om", "sigma": "1.6156E-5"}, {"sigma": "2.3854E-5", "name": "w", "title": "argument of perihelion", "value": "237.9100344341661", "units": "deg", "label": "peri"}, {"label": "M", "units": "deg", "title": "mean anomaly", "value": "61.34969720314393", "name": "ma", "sigma": "1.4803E-5"}, {"label": "tp", "name": "tp", "sigma": "4.0871E-5", "units": "TDB", "value": "2461027.307384750875", "title": "time of perihelion passage"}, {"label": "period", "name": "per", "sigma": "5.4284E-6", "title": "sidereal orbital period", "value": "1016.294200821089", "units": "d"}, {"name": "n", "sigma": "1.8921E-9", "units": "deg/d", "title": "mean motion", "value": ".3542281356216999", "label": "n"}, {"sigma": "1.0982E-8", "name": "ad", "units": "au", "value": "3.083963150970446", "title": "aphelion distance", "label": "Q"}], "epoch": "2461200.5"}